OBJECT_NAME,OBJECT_ID,EPOCH,MEAN_MOTION,ECCENTRICITY,INCLINATION,RA_OF_ASC_NODE,ARG_OF_PERICENTER,MEAN_ANOMALY,EPHEMERIS_TYPE,CLASSIFICATION_TYPE,NORAD_CAT_ID,ELEMENT_SET_NO,REV_AT_EPOCH,BSTAR,MEAN_MOTION_DOT,MEAN_MOTION_DDOT
STARLINK-37963,2026-147F,2026-07-06T04:00:01.999584,15.80835302,.00011833,97.2832,223.0388,68.5225,235.1336,0,U,69709,999,229,-.15412981E-3,-.29591E-3,0
STARLINK-37969,2026-147G,2026-07-06T04:00:01.999584,15.80811960,.00012452,97.2833,223.0411,85.0851,222.8609,0,U,69710,999,244,.33317592E-4,.6243E-4,0
STARLINK-37956,2026-147H,2026-07-06T04:00:01.999584,15.80829547,.00011331,97.2833,223.0431,87.8781,224.3380,0,U,69711,999,229,-.63007512E-4,-.12201E-3,0
STARLINK-38043,2026-147J,2026-07-06T04:00:01.999584,15.80904844,.00012242,97.2833,223.0445,89.5674,226.8908,0,U,69712,999,229,-.70846428E-3,-.134324E-2,0
STARLINK-38020,2026-147K,2026-07-06T04:00:01.999584,15.81020153,.00015688,97.2834,223.0465,71.4096,249.2532,0,U,69713,999,229,-.18524724E-2,-.344581E-2,0
STARLINK-38059,2026-147L,2026-07-06T04:00:01.999584,15.81384453,.00014407,97.2832,223.0483,83.9264,240.8135,0,U,69714,999,229,-.45107642E-2,-.809302E-2,0
STARLINK-38061,2026-147M,2026-07-06T04:00:01.999584,15.81840697,.00015131,97.2832,223.0511,102.3017,226.4362,0,U,69715,999,238,-.78122937E-2,-.1372015E-1,0
STARLINK-38060,2026-147N,2026-07-06T04:00:01.999584,15.82230656,.00011439,97.2831,223.0517,88.5052,244.1588,0,U,69716,999,238,-.93938604E-2,-.1671095E-1,0
STARLINK-38040,2026-147P,2026-07-06T04:00:01.999584,15.82638058,.00011846,97.2833,223.0534,85.2494,251.2521,0,U,69717,999,238,-.10750558E-1,-.1951698E-1,0
STARLINK-37989,2026-147Q,2026-07-06T04:00:01.999584,15.82906488,.00012345,97.2835,223.0557,78.9871,261.3644,0,U,69718,999,238,-.10701934E-1,-.1965588E-1,0
STARLINK-38039,2026-147R,2026-07-06T04:00:01.999584,15.83147458,.00010509,97.2831,223.0572,82.4902,261.6388,0,U,69719,999,238,-.10218446E-1,-.1906784E-1,0
STARLINK-38003,2026-147S,2026-07-06T04:00:01.999584,15.83399480,.00014587,97.2830,223.0575,70.0683,277.8574,0,U,69720,999,238,-.1039382E-1,-.1955896E-1,0
STARLINK-38014,2026-147T,2026-07-06T04:00:01.999584,15.83698699,.00010635,97.2831,223.0593,77.2065,274.3245,0,U,69721,999,238,-.10416666E-1,-.1983559E-1,0
STARLINK-37915,2026-147U,2026-07-06T04:00:01.999584,15.83917100,.00011547,97.2831,223.0608,71.0622,284.1835,0,U,69722,999,238,-.10277484E-1,-.1978467E-1,0
STARLINK-38007,2026-147V,2026-07-06T04:00:01.999584,15.80975863,.00012868,97.2833,223.0566,70.6478,274.9085,0,U,69723,999,238,-.14570428E-2,-.272694E-2,0
STARLINK-38008,2026-147W,2026-07-06T04:00:01.999584,15.84434904,.00014359,97.2833,223.0641,57.2244,304.9974,0,U,69724,999,238,-.97926827E-2,-.1938778E-1,0
STARLINK-38021,2026-147X,2026-07-06T04:00:01.999584,15.84620058,.00013251,97.2831,223.0654,79.5072,286.3874,0,U,69725,999,238,-.96763843E-2,-.1933529E-1,0
STARLINK-38015,2026-147Y,2026-07-06T04:00:01.999584,15.84860727,.00012318,97.2833,223.0670,78.1279,291.2080,0,U,69726,999,238,-.95684734E-2,-.1934077E-1,0
STARLINK-38010,2026-147Z,2026-07-06T04:00:01.999584,15.85096763,.00012884,97.2833,223.0683,67.3587,305.3838,0,U,69727,999,238,-.94672285E-2,-.1935425E-1,0
SXM-11,2026-148A,2026-07-02T18:38:30.146784,2.87966624,.6817708,26.8166,144.0522,178.2879,186.7543,0,U,69728,999,14,0,-.235E-5,0
HAIYANG-2E,2026-149A,2026-07-04T06:42:18.852768,13.80975314,.00075972,99.3513,192.3452,219.2566,140.8036,0,U,69737,999,32,-.6119502E+0,-.616275E-2,0
CZ-4B R/B,2026-149B,2026-07-06T00:37:39.011808,14.30065160,.01986219,99.3214,194.3900,356.4866,3.4907,0,U,69738,999,82,-.255763E-6,-.58E-6,0
2026-152A,2026-152A,2026-07-05T18:08:56.338368,15.64414753,.00228153,20.5938,39.9182,219.9708,139.9057,0,U,69792,999,37,.1559571E-2,.162402E-2,0
2026-152B,2026-152B,2026-07-05T22:44:43.605024,15.64059707,.00221497,20.5985,38.4619,223.3006,136.5698,0,U,69793,999,40,.62934517E-3,.64375E-3,0
