STARLINK-37963          
1 69709U 26147F   26187.16668981 -.00029591  00000+0 -15413-3 0  9994
2 69709  97.2832 223.0388 0001183  68.5225 235.1336 15.80835302  2292
STARLINK-37969          
1 69710U 26147G   26187.16668981  .00006243  00000+0  33318-4 0  9998
2 69710  97.2833 223.0411 0001245  85.0851 222.8609 15.80811960  2447
STARLINK-37956          
1 69711U 26147H   26187.16668981 -.00012201  00000+0 -63008-4 0  9991
2 69711  97.2833 223.0431 0001133  87.8781 224.3380 15.80829547  2294
STARLINK-38043          
1 69712U 26147J   26187.16668981 -.00134324  00000+0 -70846-3 0  9990
2 69712  97.2833 223.0445 0001224  89.5674 226.8908 15.80904844  2298
STARLINK-38020          
1 69713U 26147K   26187.16668981 -.00344581  00000+0 -18525-2 0  9994
2 69713  97.2834 223.0465 0001568  71.4096 249.2532 15.81020153  2296
STARLINK-38059          
1 69714U 26147L   26187.16668981 -.00809302  00000+0 -45108-2 0  9999
2 69714  97.2832 223.0483 0001440  83.9264 240.8135 15.81384453  2291
STARLINK-38061          
1 69715U 26147M   26187.16668981 -.01372015  00000+0 -78123-2 0  9990
2 69715  97.2832 223.0511 0001513 102.3017 226.4362 15.81840697  2386
STARLINK-38060          
1 69716U 26147N   26187.16668981 -.01671095  00000+0 -93939-2 0  9993
2 69716  97.2831 223.0517 0001143  88.5052 244.1588 15.82230656  2381
STARLINK-38040          
1 69717U 26147P   26187.16668981 -.01951698  00000+0 -10751-1 0  9994
2 69717  97.2833 223.0534 0001184  85.2494 251.2521 15.82638058  2386
STARLINK-37989          
1 69718U 26147Q   26187.16668981 -.01965588  00000+0 -10702-1 0  9994
2 69718  97.2835 223.0557 0001234  78.9871 261.3644 15.82906488  2381
STARLINK-38039          
1 69719U 26147R   26187.16668981 -.01906784  00000+0 -10218-1 0  9990
2 69719  97.2831 223.0572 0001050  82.4902 261.6388 15.83147458  2389
STARLINK-38003          
1 69720U 26147S   26187.16668981 -.01955896  00000+0 -10394-1 0  9995
2 69720  97.2830 223.0575 0001458  70.0683 277.8574 15.83399480  2384
STARLINK-38014          
1 69721U 26147T   26187.16668981 -.01983559  00000+0 -10417-1 0  9999
2 69721  97.2831 223.0593 0001063  77.2065 274.3245 15.83698699  2382
STARLINK-37915          
1 69722U 26147U   26187.16668981 -.01978467  00000+0 -10277-1 0  9996
2 69722  97.2831 223.0608 0001154  71.0622 284.1835 15.83917100  2387
STARLINK-38007          
1 69723U 26147V   26187.16668981 -.00272694  00000+0 -14570-2 0  9996
2 69723  97.2833 223.0566 0001286  70.6478 274.9085 15.80975863  2384
STARLINK-38008          
1 69724U 26147W   26187.16668981 -.01938778  00000+0 -97927-2 0  9997
2 69724  97.2833 223.0641 0001435  57.2244 304.9974 15.84434904  2388
STARLINK-38021          
1 69725U 26147X   26187.16668981 -.01933529  00000+0 -96764-2 0  9995
2 69725  97.2831 223.0654 0001325  79.5072 286.3874 15.84620058  2384
STARLINK-38015          
1 69726U 26147Y   26187.16668981 -.01934077  00000+0 -95685-2 0  9996
2 69726  97.2833 223.0670 0001231  78.1279 291.2080 15.84860727  2388
STARLINK-38010          
1 69727U 26147Z   26187.16668981 -.01935425  00000+0 -94672-2 0  9990
2 69727  97.2833 223.0683 0001288  67.3587 305.3838 15.85096763  2387
SXM-11                  
1 69728U 26148A   26183.77673781 -.00000235  00000+0  00000+0 0  9998
2 69728  26.8166 144.0522 6817708 178.2879 186.7543  2.87966624   149
HAIYANG-2E              
1 69737U 26149A   26185.27938487 -.00616275  00000+0 -61195+0 0  9993
2 69737  99.3513 192.3452 0007597 219.2566 140.8036 13.80975314   327
CZ-4B R/B               
1 69738U 26149B   26187.02614597 -.00000058  00000+0 -25576-6 0  9998
2 69738  99.3214 194.3900 0198621 356.4866   3.4907 14.30065160   823
2026-152A               
1 69792U 26152A   26186.75620762  .00162402  00000+0  15596-2 0  9999
2 69792  20.5938  39.9182 0022815 219.9708 139.9057 15.64414753   372
2026-152B               
1 69793U 26152B   26186.94772691  .00064375  00000+0  62935-3 0  9990
2 69793  20.5985  38.4619 0022149 223.3006 136.5698 15.64059707   406
